[{"OBJECT_NAME":"STARLINK-1892","OBJECT_ID":"2020-074E","EPOCH":"2026-03-09T22:16:43.903488","MEAN_MOTION":15.50597372,"ECCENTRICITY":0.0004541,"INCLINATION":53.0467,"RA_OF_ASC_NODE":292.3712,"ARG_OF_PERICENTER":97.7841,"MEAN_ANOMALY":262.3683,"EPHEMERIS_TYPE":0,"CLASSIFICATION_TYPE":"U","NORAD_CAT_ID":46743,"ELEMENT_SET_NO":999,"REV_AT_EPOCH":29711,"BSTAR":0.0020777794,"MEAN_MOTION_DOT":0.0012244,"MEAN_MOTION_DDOT":0},{"OBJECT_NAME":"STARLINK-30756","OBJECT_ID":"2023-162M","EPOCH":"2026-03-09T22:00:01.999584","MEAN_MOTION":15.24289135,"ECCENTRICITY":0.00012395,"INCLINATION":43.0001,"RA_OF_ASC_NODE":131.0506,"ARG_OF_PERICENTER":308.8263,"MEAN_ANOMALY":44.7614,"EPHEMERIS_TYPE":0,"CLASSIFICATION_TYPE":"U","NORAD_CAT_ID":58129,"ELEMENT_SET_NO":999,"REV_AT_EPOCH":572,"BSTAR":0.073732915,"MEAN_MOTION_DOT":0.02042507,"MEAN_MOTION_DDOT":0}]
